#dP2020  5 11  0  0  0.00000000      96 __u+U ITR00 FIT  IAC
## 2105  86400.00000000   900.00000000 58980 0.0000000000000
+  118   C01C02C03C04C05C06C07C08C09C10C11C12C13C14C16C19C20
+        C21C22C23C24C25C26C27C28C29C30C32C33C34C35C36C37C38
+        C43C46E01E02E03E04E05E07E08E09E11E12E13E14E15E18E19
+        E21E24E25E26E27E30E31E33E36G01G02G03G04G05G06G07G08
+        G09G10G11G12G13G14G15G16G17G18G19G20G21G22G23G24G25
+        G26G27G28G29G30G31G32J01J03J07R01R02R03R04R05R07R08
+        R09R11R12R13R14R15R16R17R18R19R20R21R22R23R24R26  0
++        14 13  0 13 13  9  9  9  8  8  8  8  8  8  9  8  8
++         8  8  8  8  8  8  8  8  8  8  9  8  9  9  9  9 11
++        10 11  5  6  6  4  5  5  5  5  5  5  5  5  5  6  5
++         5  5  6  5  5  5  5  5  5  4  4  4  4  4  4  4  4
++         4  4  4  4  4  4  4  4  4  4  4  4  4  4  7  4  4
++         4  4  4  4  4  4  4  8  9 14  7  6  6  6  6  6  6
++         6  6  6  7  6  6  7  6  6  7  7  6  6  6  6  9  0
%c M  cc GPS ccc cccc cccc cccc cccc ccccc ccccc ccccc ccccc
%c cc cc ccc ccc cccc cccc cccc cccc ccccc ccccc ccccc ccccc
%f  0.0000000  0.000000000  0.00000000000  0.000000000000000
%f  0.0000000  0.000000000  0.00000000000  0.000000000000000
%i    0    0    0    0      0      0      0      0         0
%i    0    0    0    0      0      0      0      0         0
/* INFORMATION & ANALYSIS CENTER (IAC)            RAPID DATA
/* S/V CLOCKS ARE ALIGNED TO GNSS TIME                      
/* G:C1WC2W R:C1PC2P E:C1XC5X C:C2IC6I J:C1CC2S             
/* PCV:IGS14_2101 OL/AL:FES2004  NONE     YN ORB:CoN CLK:CoN
*  2020 05 11 10  0  0.00000000
PC01 -34338.149801  24435.037683   -591.681752   -524.356093
PC02   4378.515446  41937.397868    460.415760    358.109276
PC03      0.000000      0.000000      0.000000 999999.999999
PC04 -39615.589221  14410.184227    375.431084   -223.109546
PC05  21885.306704  36034.555865    234.833478   -263.187843
PC06 -24625.845020  24829.515661 -23460.100915    730.462389
PC07 -15221.226564  37275.435911 -11445.380861    -24.006271
PC08  -7274.005773  21893.133341  35431.993596   -246.633469
PC09  -7244.469589  25696.540009 -32456.197125    532.735106
PC10  -4469.693254  41636.188191   2414.834785   -938.688534
PC11  25201.213299   6422.467300  10234.818481   -357.665946
PC12   9115.428351  14370.661382  22149.644537    370.121633
PC13   6211.416932  30352.503495  28809.578462    429.693013
PC14  14678.244206   6402.980541 -22819.931481    393.928461
PC16 -20799.932790  25589.459093 -26304.217211   -648.476968
PC19 -18326.247144   3826.129953  20721.058646    409.029759
PC20  -9197.026070 -14942.160947  21731.630264   -880.132332
PC21  -5804.725886  25454.560272  -9795.209504   -387.436722
PC22 -17031.040130  20735.254395   7614.664376   -809.968628
PC23  11006.832189 -12522.792534  22381.251743   -880.161923
PC24  16528.139859  22186.707729   3722.430523   -826.102703
PC25  19699.482071   5972.814092  18845.516210   -613.086281
PC26   5045.687198  24408.222653 -12586.973663    676.381550
PC27   1912.353083 -15849.584943 -22904.905459    328.066932
PC28  21097.296335 -10562.613579 -14905.409901    319.159087
PC29 -27854.128501    187.081781  -1759.070400    226.946300
PC30 -18466.454406 -11297.093375 -17627.597759    315.215978
PC32   5563.646865 -25519.568501   9864.937661   -895.929357
PC33  18314.779662  -3901.562283 -20683.260731   -840.782852
PC34  18797.229953  11174.733044  17312.243328   -709.140825
PC35 -20884.136184  11228.679424  14740.781301   -850.174755
PC36 -19584.492887  -6672.631216 -18706.375244   -828.773047
PC37  -3923.151660 -24310.676620  13135.916000   -842.650523
PC38  -3401.024142  26825.863640  32393.972134     77.249388
PC43  27819.479742    164.881977   2000.172607   -188.708275
PC46 -16782.656384 -21878.232387  -4187.129643 999999.999999
PE01  16594.308599   6663.003227  23585.390658   -854.162730
PE02 -16602.045773  -6548.218157 -23616.879642    132.548441
PE03 -23752.529582   2183.791262  17524.777398   -297.440472
PE04  24064.193700 -17218.502132   -813.085726   -523.129209
PE05  -9505.763516 -14286.197317  24126.962415   -381.199611
PE07 -10190.574459  22286.070037 -16582.459876   -380.248838
PE08 -23872.901777  17476.385726    642.016968   6179.897605
PE09  10019.690325 -22281.151919  16735.537726   6064.889962
PE11     80.624541 -17185.571529 -24109.437233   2767.587324
PE12  20228.406942  -6283.896449 -20664.586761   5811.012113
PE13   -294.040767  17023.128668  24215.960470    400.755795
PE14  20902.794838 -18102.714297 -13275.337645  -1009.819431
PE15 -20046.494228   6439.497647  20815.165906    867.457819
PE18 -24701.588248   8771.430696   1577.929995  -1108.674449
PE19  22764.653769   -457.812346 -18902.255472  -1923.168317
PE21  10920.321187  24820.921941  11861.741042   -598.301031
PE24   1555.728447 -28670.753261   7138.839952   5461.666077
PE25 -10858.996304 -24900.077474 -11756.254486   -510.412599
PE26  19812.307054  17731.329985  13009.394773   3202.382044
PE27  -1260.467258  28742.994752  -6969.797580    222.440278
PE30 -12913.578661  15394.683314 -21750.434511   3916.366154
PE31  12649.517220 -15765.488620  21628.696228   -472.520624
PE33  28033.920474   7937.448382  -5180.191700   -467.420079
PE36 -19658.550769 -17621.157752 -13393.633957    561.642633
PG01 -21936.945763 -14838.604092   3497.382242   -377.754033
PG02   8378.140079  19760.413149  16321.659597   -454.033639
PG03 -13172.445931  -9620.683056  20922.369970   -172.168080
PG04 -22419.148004  -2536.187484  14050.535877    -87.850209
PG05   2740.477710  25087.247122  -8083.603750    -12.461606
PG06  -2665.984445  15986.457561  21085.128862   -269.465530
PG07 -19985.151193   -413.819566 -17421.734221   -278.548175
PG08 -13490.243417  -9840.828415 -20699.584672    -33.592247
PG09 -25263.121446   7039.637236   4219.713649   -215.110784
PG10  11575.103357 -20407.449152 -12131.178092   -337.508810
PG11 -20374.186221 -13078.289564 -11054.004486   -280.500724
PG12  11680.173251  11505.106262  20696.112394    119.227566
PG13   4760.717497  14381.447468 -21936.652130      9.089705
PG14  10549.984958 -16468.852091  18230.236231    -13.753889
PG15  15352.332444   9036.653221 -20112.276327   -231.988157
PG16  -1012.930879 -24385.010917 -10124.236222   -156.850200
PG17 -19055.300841  14485.915341  11880.864502    262.922348
PG18  19999.592551    993.085687 -17480.803005    186.026433
PG19 -12931.375325  15368.086208  17070.268315   -160.314128
PG20  14734.368537 -10161.667933 -19636.609246    527.712150
PG21  19185.794514  -1701.678062 -17432.972303     -2.871554
PG22 -10869.991333 -18292.475572  16195.605523   -782.658684
PG23 -25514.057577   6916.781837   4729.825626   -115.116284
PG24  22345.192574  14651.309817   1280.178573    -12.880159
PG25  15103.497042     45.700521  21590.839729      3.179564
PG26   4633.033348 -25939.072533   2124.419328    204.279206
PG27  -1948.424847 -15067.070297 -21892.668519   -290.671938
PG28 -12254.476989  21125.440731 -10030.546724    718.361530
PG29  25411.042544  -2960.507543   7136.805127   -101.729744
PG30 -12266.321235  10011.458520 -21300.384947   -217.654651
PG31   2078.827807 -16883.730478  20238.398136    -41.646435
PG32  17636.943509 -15939.970317  11774.074403    278.185679
PJ01 -32752.383681  25872.854584  10915.381227   -306.522820
PJ03 -30593.819130  25716.562074  18588.058249     -2.854412
PJ07 -25387.273889  33665.753174    -20.937615     -0.020307
PR01  -1081.760247 -14919.599416  20673.984233     61.357090
PR02 -15139.864859   3384.654843  20311.089383    426.126393
PR03 -17831.904274  16980.020739   6799.159592     14.802894
PR04 -10393.422787  20789.298700 -10478.741458     48.720225
PR05   2816.937093  12846.976254 -21843.239839     50.261270
PR07  17686.666619 -17295.016697  -6099.666612    -36.392950
PR08  10302.150120 -20815.093460  10593.134443    -52.160635
PR09  13212.571383   5275.490814  21167.237496    131.962528
PR11  -2784.381886 -22552.867622  11649.169151    -23.192154
PR12 -11210.598654 -22373.714028  -4862.765027    129.835606
PR13 -13679.432291  -9252.310860 -19460.586155    -38.553562
PR14  -7950.379786   9211.950822 -22407.897901     51.091357
PR15   2248.410537  22161.400545 -12413.084114    106.459120
PR16  11890.835661  21987.621961   5368.642817     -3.442765
PR17 -20251.662001   3705.371026  15044.214856    323.925972
PR18  -4658.956584   9782.197384  23107.665350     34.958380
PR19  12871.621666  11042.050983  19050.389961    -92.791627
PR20  24766.641838   5619.839144   2096.584182   -411.398059
PR21  19656.139986  -4027.899044 -15765.827422   -123.771426
PR22   1662.350847 -10287.524192 -23279.440046     -0.695131
PR23 -18810.347766  -9639.304839 -14295.457179    304.777126
PR24 -24941.099607  -5167.692502  -1306.244670     -2.060038
PR26  23594.181531   6994.393846   6766.063575   -395.729443
EOF
